CAS-2T & KS-1Q          
1 41847U 16066G   23049.44899019  .00002909  00000+0  44220-3 0  9999
2 41847  98.5196 118.5337 0361473 193.3697 165.7716 14.39195042329728
NAYIF-1 (EO-88)         
1 42017U 17008BX  23049.15313494  .00060893  00000+0  11123-2 0  9993
2 42017  97.2348 118.0609 0003268  86.2802 273.8823 15.49193833334884
ZHUHAI-1 02 (CAS-4B)    
1 42759U 17034B   23049.88888586  .00014632  00000+0  78493-3 0  9998
2 42759  43.0166  52.1098 0009838  46.9755  25.6935 15.14752086313688
ZHUHAI-1 01 (CAS-4A)    
1 42761U 17034D   23049.72905850  .00014508  00000+0  77590-3 0  9997
2 42761  43.0165  51.5862 0010253  49.1711 119.8497 15.14863555313663
MAX VALIER SAT          
1 42778U 17036P   23049.53572098  .00017479  00000+0  54850-3 0  9994
2 42778  97.1753  87.5386 0010150 159.9104 200.2540 15.33041505314519
RADFXSAT (FOX-1B)       
1 43017U 17073E   23049.74296004  .00006613  00000+0  47528-3 0  9997
2 43017  97.6489 298.8018 0241797  99.7001 263.1615 14.83948553283605
FOX-1D (AO-92)          
1 43137U 18004AC  23049.49249360  .00029606  00000+0  81396-3 0  9998
2 43137  97.3420 128.1057 0006537 202.8950 157.2004 15.37136899284023
DIWATA-2B               
1 43678U 18084H   23049.84486048  .00003573  00000+0  35052-3 0  9994
2 43678  98.0003 191.6149 0009121 186.7056 173.4018 14.92844746234605
ES'HAIL 2               
1 43700U 18090A   23049.78622715  .00000133  00000+0  00000+0 0  9993
2 43700   0.0133 111.3510 0002493 258.1468  87.7791  1.00272137 15746
FOX-1CLIFF (AO-95)      
1 43770U 18099N   23049.14889039  .00005955  00000+0  50514-3 0  9999
2 43770  97.5908 113.9250 0013510 165.8815 194.2788 14.98230570229771
ITASAT 1                
1 43786U 18099AE  23049.13327078  .00006628  00000+0  56274-3 0  9992
2 43786  97.5941 114.9342 0015095 156.9441 203.2462 14.98135394229817
JY1SAT (JO-97)          
1 43803U 18099AX  23049.44480885  .00006714  00000+0  55674-3 0  9991
2 43803  97.5875 115.1155 0015084 158.6891 201.4964 14.99044237229895
UWE-4                   
1 43880U 18111E   23049.45744625  .00006927  00000+0  55617-3 0  9990
2 43880  97.6523 316.5355 0013581 210.1452 149.8992 15.00300547226555
NEXUS (FO-99)           
1 43937U 19003F   23049.57032306  .00036468  00000+0  89893-3 0  9999
2 43937  97.1046  79.2045 0015751 356.8875   3.2272 15.40341973227715
JAISAT-1                
1 44419U 19038F   23049.37145358  .00023682  00000+0  98612-3 0  9996
2 44419  97.6645  27.7721 0016723  10.3972 349.7606 15.23610973200406
DUCHIFAT-3              
1 44854U 19089C   23049.48901647  .00013780  00000+0  98738-3 0  9995
2 44854  36.9624  79.4686 0006477  66.0021  82.5832 15.03780010174944
CAS-6 (TIANQIN 1)       
1 44881U 19093C   23049.76567276  .00002323  00000+0  29759-3 0  9995
2 44881  97.8713 130.2200 0016027 102.4651 257.8349 14.82164587171255
RS-44 & BREEZE-KM R/B   
1 44909U 19096E   23049.46503172  .00000035  00000+0  86729-4 0  9990
2 44909  82.5174  66.8305 0218575 104.4853 258.0606 12.79718442146975
ORBITAL FACTORY 2 (OF-2)
1 45113U 19071C   23048.84548341  .00259718  00000+0  14349-2 0  9990
2 45113  51.6275 274.0850 0002799 254.4762 105.5929 15.78318827171566
HUSKYSAT-1 (HO-107)     
1 45119U 19071J   23049.63783315  .00149174  00000+0  12014-2 0  9997
2 45119  51.6305 274.8634 0002372 297.1309  62.9447 15.69924764171612
BY70-2                  
1 45857U 20042B   23049.78665515  .00030164  00000+0  35290-2 0  9992
2 45857  97.9349 129.7120 0008831  38.2702 321.9054 14.84971971141939
SALSAT                  
1 46495U 20068K   23049.40569642  .00006562  00000+0  45067-3 0  9991
2 46495  97.7567 356.3741 0016524 157.7624 202.4323 15.06201713131186
BY70-3                  
1 46839U 20079N   23049.96837726  .00144495  00000+0  13479-2 0  9996
2 46839  97.1648 126.2222 0003206 183.4337 349.4292 15.66865088128427
RADFXSAT-2 (AO-109)     
1 47311U 21002C   23049.81180812  .00026341  00000+0  83770-3 0  9991
2 47311  60.6833 151.3359 0034331 112.9649 247.5071 15.31971235116110
UVSQ-SAT                
1 47438U 21006AB  23049.59005277  .00015617  00000+0  72437-3 0  9993
2 47438  97.4037 108.6453 0011704 135.3226 224.8954 15.20076941114601
DIY-1 (ARDUIQUBE)       
1 47963U 21022AH  23049.52367272  .00070515  00000+0  25094-2 0  9997
2 47963  97.5137 314.5860 0013330  20.2452 339.9313 15.28610514104295
XW-3 (CAS-9)            
1 50466U 21131B   23049.87983416  .00000814  00000+0  27995-3 0  9990
2 50466  98.5595 131.7864 0005561 130.2159 229.9515 14.38688139 60349
TEVEL-3                 
1 50988U 22002E   23049.83519609  .00028348  00000+0  13265-2 0  9998
2 50988  97.4502 117.9673 0007623 287.9786 165.1376 15.19684153 60758
TEVEL-8                 
1 50989U 22002F   23049.85250090  .00028047  00000+0  13147-2 0  9992
2 50989  97.4525 118.0304 0007605 285.9748 185.4223 15.19624084 60756
TEVEL-5                 
1 50998U 22002Q   23049.83608271  .00029129  00000+0  13380-2 0  9999
2 50998  97.4500 118.2301 0008990 282.3983 169.7105 15.20308408 60775
TEVEL-6                 
1 50999U 22002R   23049.83469858  .00029044  00000+0  13338-2 0  9995
2 50999  97.4490 118.2254 0009225 283.2825 168.0159 15.20313428 60777
TEVEL-1                 
1 51013U 22002AF  23049.84530646  .00028156  00000+0  13187-2 0  9993
2 51013  97.4498 117.9353 0007800 287.8700 183.6773 15.19651357 60755
TEVEL-7                 
1 51062U 22002CG  23049.85441818  .00028071  00000+0  13156-2 0  9992
2 51062  97.4522 118.0097 0007642 284.6951 186.5995 15.19630289 60750
TEVEL-4                 
1 51063U 22002CH  23049.85725887  .00027961  00000+0  13116-2 0  9997
2 51063  97.4516 118.0025 0007747 285.7968 185.3771 15.19600889 60753
TEVEL-2                 
1 51069U 22002CP  23049.83686992  .00028411  00000+0  13293-2 0  9991
2 51069  97.4502 117.9454 0007730 288.0437 163.9268 15.19683978 60750
GREENCUBE               
1 53106U 22080B   23034.19933790 -.00000003  00000+0  00000+0 0  9992
2 53106  70.1777   6.2677 0008922 216.5435 143.4616  6.42557193 13147
RS29S (SXC3-2110 CYCLO*)
1 53373U 22096D   23049.84076366  .00038198  00000+0  12782-2 0  9998
2 53373  97.4258 315.4001 0002071 107.3538 321.6974 15.30865419 29532
RS32S (SXC3-212 MONITO*)
1 53374U 22096E   23049.83683676  .00037481  00000+0  12610-2 0  9990
2 53374  97.4238 315.3946 0002167 110.4764 321.3032 15.30693746 29534
RS34S (SXC3-218 KUZBAS*)
1 53375U 22096F   23049.87673350  .00029530  00000+0  10220-2 0  9994
2 53375  97.4252 315.3487 0002241 114.3760 310.6420 15.29827119 29536
RS23S (SXC3-21 UTMN)    
1 53376U 22096G   23049.86676789  .00033737  00000+0  11576-2 0  9992
2 53376  97.4257 315.3632 0002542 112.6439 313.2162 15.30077295 29538
RS28S (SXC3-214 MIET-A*)
1 53377U 22096H   23049.81142993  .00032182  00000+0  11124-2 0  9995
2 53377  97.4252 315.2978 0002246 116.8963 330.1618 15.29849233 29525
RS26S (KAI-1)           
1 53378U 22096J   23049.83160826  .00026547  00000+0  93614-3 0  9996
2 53378  97.4257 315.2630 0002154 111.2960 321.4059 15.29237384 29520
RS19S (SXC3-219 ISOI)   
1 53381U 22096M   23049.87590067  .00032161  00000+0  10926-2 0  9991
2 53381  97.4251 315.5021 0006136 110.3015 314.8140 15.30396686 29542
RS21S (CUBESX-HSE-2)    
1 53383U 22096P   23049.80719806  .00032865  00000+0  11122-2 0  9990
2 53383  97.4257 315.4551 0006285 108.6223 339.0392 15.30516992 29534
RS30S (SXC3-217 SIREN)  
1 53384U 22096Q   23049.96409584  .00028220  00000+0  97106-3 0  9994
2 53384  97.4253 315.5685 0006172 108.0866  23.0707 15.30009380 29552
RS20S (GEOSCAN-EDELVEIS)
1 53385U 22096R   23049.78743002  .00042362  00000+0  13647-2 0  9991
2 53385  97.4247 315.6236 0006678 105.8775 339.4988 15.32048444 29577
RS33S (SXC3-215 VIZARD) 
1 53386U 22096S   23049.82833480  .00049660  00000+0  15301-2 0  9994
2 53386  97.4254 315.8666 0007659 110.9346 322.7166 15.33426927 29587
CAS-5A (FO-118)         
1 54684U 22167C   23049.87394954  .00019477  00000+0  11829-2 0  9992
2 54684  97.5417 188.6877 0014719  22.8295 128.2530 15.10443038 10794
XW-4 (CAS-10)           
1 54816U 21035C   23049.69253638  .00342207  00000+0  15593-2 0  9997
2 54816  41.4775 153.7337 0016194  11.7735 348.3495 15.81875412  9713
